TISAT 1                 
1 36799U 10035E   26068.75703561  .00024554  00000+0  91005-3 0  9996
2 36799  98.0645   6.8512 0001343 159.3030 200.8262 15.27628633852505
STARLINK-30107          
1 56287U 23056B   26068.65769541 -.00000122  00000+0  50864-5 0  9992
2 56287  43.0025 191.3282 0001075 253.2800 106.7934 15.27572483160295
